[{"OBJECT_NAME":"LOGSATS","OBJECT_ID":"2025-009CJ","EPOCH":"2026-03-09T17:25:39.487008","MEAN_MOTION":15.72310294,"ECCENTRICITY":0.00053927,"INCLINATION":97.3907,"RA_OF_ASC_NODE":158.8419,"ARG_OF_PERICENTER":263.6729,"MEAN_ANOMALY":96.392,"EPHEMERIS_TYPE":0,"CLASSIFICATION_TYPE":"U","NORAD_CAT_ID":62689,"ELEMENT_SET_NO":999,"REV_AT_EPOCH":6421,"BSTAR":0.0019540727,"MEAN_MOTION_DOT":0.00266017,"MEAN_MOTION_DDOT":0},{"OBJECT_NAME":"STARLINK-11406 [DTC]","OBJECT_ID":"2025-035F","EPOCH":"2026-03-09T06:11:03.664320","MEAN_MOTION":15.70866877,"ECCENTRICITY":0.00018628,"INCLINATION":43.0012,"RA_OF_ASC_NODE":17.8809,"ARG_OF_PERICENTER":266.1244,"MEAN_ANOMALY":93.941,"EPHEMERIS_TYPE":0,"CLASSIFICATION_TYPE":"U","NORAD_CAT_ID":63057,"ELEMENT_SET_NO":999,"REV_AT_EPOCH":6103,"BSTAR":0.0010518605,"MEAN_MOTION_DOT":0.00136921,"MEAN_MOTION_DDOT":0}]
