LOGSATS                 
1 62689U 25009CJ  26068.72615147  .00266017  00000+0  19541-2 0  9995
2 62689  97.3907 158.8419 0005393 263.6729  96.3920 15.72310294 64215
STARLINK-11406 [DTC]    
1 63057U 25035F   26068.25768130  .00136921  00000+0  10519-2 0  9999
2 63057  43.0012  17.8809 0001862 266.1244  93.9410 15.70866877 61039
